GLOBALSTAR M045         
1 25676U 99019A   24305.55695054 -.00000098  00000+0 -36903-4 0  9990
2 25676  51.9964 236.9084 0000926  74.9231  96.4666 12.27048042165321
GLOBALSTAR M019         
1 25677U 99019B   24305.53716708  .00000052  00000+0  14752-2 0  9993
2 25677  51.9910 351.2422 0001022 200.7977 307.7925 12.13867740157375
GLOBALSTAR M044         
1 25678U 99019C   24305.36061322 -.00000052  00000+0  43633-3 0  9992
2 25678  51.9964 274.4665 0006581 324.3800 186.0899 11.90245394144073
GLOBALSTAR M042         
1 25679U 99019D   24305.48059243 -.00000037  00000+0  51591-3 0  9990
2 25679  52.0035 336.5942 0002875 180.9015 326.7429 12.22072113157292
GLOBALSTAR M025         
1 25770U 99031A   24305.48663281 -.00000026  00000+0  12697-2 0  9990
2 25770  51.9841 329.0733 0001566 118.2437  52.8925 11.22555488456021
GLOBALSTAR M049         
1 25771U 99031B   24305.50962955 -.00000029  00000+0  12423-2 0  9994
2 25771  51.9911 352.2900 0002985 357.9492   2.1291 11.12112389 91985
GLOBALSTAR M047         
1 25772U 99031C   24305.43222672 -.00000043  00000+0  72352-3 0  9996
2 25772  51.9873  11.2889 0016278 228.6414 131.2992 11.31924449445208
GLOBALSTAR M052         
1 25773U 99031D   24305.54943358 -.00000024  00000+0  14098-2 0  9991
2 25773  51.9841 104.0870 0003332 137.4602 302.3061 11.15055189453001
